STARLINK-5129           
1 54004U 22125AS  26068.66726503  .00000052  00000+0  21352-4 0  9995
2 54004  53.2163 213.9052 0001267  84.1601 275.9536 15.08841133189462
DISKSAT C               
1 67219U 25305A   26068.80315184  .00011541  00000+0  75564-3 0  9993
2 67219  45.0017 250.1278 0004534 310.7706  49.2776 15.07852977 12312
